%
(O1000 DT 示範零件)
G21 G90 G17
(── 1. 面銑：Ø50 面銑刀，切掉 1 mm ──)
T5 M6
G43 H5
S3000 M3
G0 X-110 Y-40 Z5
G1 Z-1 F300
G1 X110 F1500
G1 Y0
G1 X-110
G1 Y40
G1 X110
G0 Z5
(── 2. 方形口袋 50 × 40，深 6 mm：Ø10 平銑刀，分兩層 ──)
T1 M6
G43 H1
S6000 M3
G0 X-20 Y-15 Z2
G1 Z-3.5 F200
G1 X20 F900
G1 Y-9
G1 X-20
G1 Y-3
G1 X20
G1 Y3
G1 X-20
G1 Y9
G1 X20
G1 Y15
G1 X-20
G1 Y-15
G1 Z-7 F200
G1 X20 F900
G1 Y15
G1 X-20
G1 Y-15
G0 Z5
(── 3. 四個孔：Ø8 鑽頭，G83 啄鑽 ──)
T4 M6
G43 H4
S2500 M3
G0 Z10
G98 G83 X-60 Y-45 Z-15 R2 Q5 F200
X60
Y45
X-60
G80
(── 4. 圓槽 R45，深 2 mm：Ø6 平銑刀，G2 整圓 ──)
T2 M6
G43 H2
S8000 M3
G0 X45 Y0 Z2
G1 Z-2 F150
G2 X45 Y0 I-45 J0 F600
G0 Z10
M30
%
